[{"OBJECT_ID":"1994-074FV","OBJECT_NAME":"RESURS O1 DEB","NORAD_CAT_ID":"49241","OBJECT_TYPE":"DEBRIS","PERIOD":"97.106","INCLINATION":"97.9027","ECCENTRICITY":"0.00079770","MEAN_MOTION":"14.82915815","TLE_LINE1":"1 49241U 94074FV  21271.41525089  .00010091  00000-0  12487-2 0  9996","TLE_LINE2":"2 49241  97.9027 320.0347 0007977 101.6569 258.5540 14.82915815  7025"},{"OBJECT_ID":"1994-074FW","OBJECT_NAME":"RESURS O1 DEB","NORAD_CAT_ID":"49242","OBJECT_TYPE":"DEBRIS","PERIOD":"97.178","INCLINATION":"97.9154","ECCENTRICITY":"0.00035220","MEAN_MOTION":"14.81809925","TLE_LINE1":"1 49242U 94074FW  21267.96609826  .00004126  00000-0  52887-3 0  9995","TLE_LINE2":"2 49242  97.9154 316.3740 0003522  78.5311 281.6298 14.81809925  6536"},{"OBJECT_ID":"1994-074FX","OBJECT_NAME":"RESURS O1 DEB","NORAD_CAT_ID":"49243","OBJECT_TYPE":"DEBRIS","PERIOD":"97.143","INCLINATION":"97.9073","ECCENTRICITY":"0.00014590","MEAN_MOTION":"14.82343269","TLE_LINE1":"1 49243U 94074FX  21271.37119190  .00007294  00000-0  91775-3 0  9994","TLE_LINE2":"2 49243  97.9073 319.9292 0001459 187.1010 173.0182 14.82343269  7046"},{"OBJECT_ID":"1994-074FY","OBJECT_NAME":"RESURS O1 DEB","NORAD_CAT_ID":"49244","OBJECT_TYPE":"DEBRIS","PERIOD":"97.179","INCLINATION":"97.9296","ECCENTRICITY":"0.00059970","MEAN_MOTION":"14.81802391","TLE_LINE1":"1 49244U 94074FY  21272.41732079  .00004728  00000-0  60506-3 0  9995","TLE_LINE2":"2 49244  97.9296 321.4303 0005997 107.0760 253.1110 14.81802391  4154"},{"OBJECT_ID":"1994-074FZ","OBJECT_NAME":"RESURS O1 DEB","NORAD_CAT_ID":"49245","OBJECT_TYPE":"DEBRIS","PERIOD":"97.180","INCLINATION":"97.9298","ECCENTRICITY":"0.00058550","MEAN_MOTION":"14.81786563","TLE_LINE1":"1 49245U 94074FZ  21269.37856935  .00004479  00000-0  57384-3 0  9998","TLE_LINE2":"2 49245  97.9298 318.4231 0005855 118.3405 241.8399 14.81786563  3713"},{"OBJECT_ID":"1994-074GA","OBJECT_NAME":"RESURS O1 DEB","NORAD_CAT_ID":"49246","OBJECT_TYPE":"DEBRIS","PERIOD":"97.084","INCLINATION":"97.9097","ECCENTRICITY":"0.00025320","MEAN_MOTION":"14.83244998","TLE_LINE1":"1 49246U 94074GA  21271.37552595  .00008237  00000-0  10132-2 0  9992","TLE_LINE2":"2 49246  97.9097 320.6149 0002532  89.5531 270.5973 14.83244998  4016"},{"OBJECT_ID":"1983-044GX","OBJECT_NAME":"COSMOS 1461 DEB","NORAD_CAT_ID":"49247","OBJECT_TYPE":"DEBRIS","PERIOD":"96.180","INCLINATION":"65.0019","ECCENTRICITY":"0.00887510","MEAN_MOTION":"14.97196831","TLE_LINE1":"1 49247U 83044GX  21272.29785720  .00026651  00000-0  21235-2 0  9994","TLE_LINE2":"2 49247  65.0019 115.4844 0088751 153.8802 206.6834 14.97196831  9694"},{"OBJECT_ID":"2021-084B","OBJECT_NAME":"INSPIRATION-4 DEB","NORAD_CAT_ID":"49248","OBJECT_TYPE":"DEBRIS","PERIOD":"91.802","INCLINATION":"51.6446","ECCENTRICITY":"0.00067080","MEAN_MOTION":"15.68585774","TLE_LINE1":"1 49248U 21084B   21271.19200640  .00046682  00000-0  40533-3 0  9991","TLE_LINE2":"2 49248  51.6446 189.9929 0006708 318.9603  41.0888 15.68585774  1469"},{"OBJECT_ID":"1966-040BX","OBJECT_NAME":"NIMBUS 2 DEB","NORAD_CAT_ID":"49249","OBJECT_TYPE":"DEBRIS","PERIOD":"107.972","INCLINATION":"100.4683","ECCENTRICITY":"0.00475390","MEAN_MOTION":"13.33680406","TLE_LINE1":"1 49249U 66040BX  21272.31618445  .00000981  00000-0  20678-2 0  9993","TLE_LINE2":"2 49249 100.4683  55.2606 0047539  10.2499 349.9582 13.33680406  9091"},{"OBJECT_ID":"1999-057TD","OBJECT_NAME":"CZ-4B DEB","NORAD_CAT_ID":"49250","OBJECT_TYPE":"DEBRIS","PERIOD":"99.822","INCLINATION":"98.6637","ECCENTRICITY":"0.00986790","MEAN_MOTION":"14.42571368","TLE_LINE1":"1 49250U 99057TD  21270.93097418  .00010550  00000-0  30075-2 0  9991","TLE_LINE2":"2 49250  98.6637 254.3939 0098679 218.4392 140.9739 14.42571368 15936"},{"OBJECT_ID":"2021-053D","OBJECT_NAME":"SZ-12 MODULE DEB","NORAD_CAT_ID":"49251","OBJECT_TYPE":"DEBRIS","PERIOD":"91.857","INCLINATION":"41.5445","ECCENTRICITY":"0.00069130","MEAN_MOTION":"15.67648448","TLE_LINE1":"1 49251U 21053D   21272.34348787  .00523257  00000-0  43607-2 0  9996","TLE_LINE2":"2 49251  41.5445   7.6225 0006913   7.4448 352.6496 15.67648448  1823"},{"OBJECT_ID":"2021-053E","OBJECT_NAME":"SZ-12 MODULE DEB","NORAD_CAT_ID":"49252","OBJECT_TYPE":"DEBRIS","PERIOD":"91.736","INCLINATION":"41.5389","ECCENTRICITY":"0.00069860","MEAN_MOTION":"15.69714037","TLE_LINE1":"1 49252U 21053E   21272.33232243  .00600658  00000-0  45554-2 0  9999","TLE_LINE2":"2 49252  41.5389   7.5340 0006986  12.0657 348.0353 15.69714037  1711"},{"OBJECT_ID":"2021-053F","OBJECT_NAME":"SZ-12 MODULE DEB","NORAD_CAT_ID":"49253","OBJECT_TYPE":"DEBRIS","PERIOD":"92.171","INCLINATION":"41.5416","ECCENTRICITY":"0.00096540","MEAN_MOTION":"15.62312384","TLE_LINE1":"1 49253U 21053F   21271.34072937  .00209558  00000-0  22445-2 0  9990","TLE_LINE2":"2 49253  41.5416  14.0191 0009654   8.1912 351.9085 15.62312384  1745"},{"OBJECT_ID":"2021-053G","OBJECT_NAME":"SZ-12 MODULE DEB","NORAD_CAT_ID":"49254","OBJECT_TYPE":"DEBRIS","PERIOD":"91.620","INCLINATION":"41.5318","ECCENTRICITY":"0.00129670","MEAN_MOTION":"15.71709608","TLE_LINE1":"1 49254U 21053G   21272.32928359  .00895684  00000-0  61161-2 0  9997","TLE_LINE2":"2 49254  41.5318   7.5130 0012967  13.7728 346.3468 15.71709608  1860"},{"OBJECT_ID":"2021-053H","OBJECT_NAME":"SZ-12 MODULE DEB","NORAD_CAT_ID":"49255","OBJECT_TYPE":"DEBRIS","PERIOD":"91.648","INCLINATION":"41.5469","ECCENTRICITY":"0.00115500","MEAN_MOTION":"15.71234928","TLE_LINE1":"1 49255U 21053H   21272.33198516  .00796059  00000-0  55262-2 0  9994","TLE_LINE2":"2 49255  41.5469   7.5284 0011550  30.3398 329.8112 15.71234928  1380"}]